#cP2010 10 26  0  0  0.00000000      96 ORBIT IGS05 HLM  IGS
## 1607 172800.00000000   900.00000000 55495 0.0000000000000
+   32   G01G02G03G04G05G06G07G08G09G10G11G12G13G14G15G16G17
+        G18G19G20G21G22G23G24G25G26G27G28G29G30G31G32  0  0
+          0  0  0  0  0  0  0  0  0  0  0  0  0  0  0  0  0
+          0  0  0  0  0  0  0  0  0  0  0  0  0  0  0  0  0
+          0  0  0  0  0  0  0  0  0  0  0  0  0  0  0  0  0
++         5  2  2  2  2  2  2  2  3  2  2  3  2  2  2  2  3
++         2  2  2  2  2  3  2  2  2  3  3  2  2  2  2  0  0
++         0  0  0  0  0  0  0  0  0  0  0  0  0  0  0  0  0
++         0  0  0  0  0  0  0  0  0  0  0  0  0  0  0  0  0
++         0  0  0  0  0  0  0  0  0  0  0  0  0  0  0  0  0
%c G  cc GPS ccc cccc cccc cccc cccc ccccc ccccc ccccc ccccc
%c cc cc ccc ccc cccc cccc cccc cccc ccccc ccccc ccccc ccccc
%f  1.2500000  1.025000000  0.00000000000  0.000000000000000
%f  0.0000000  0.000000000  0.00000000000  0.000000000000000
%i    0    0    0    0      0      0      0      0         0
%i    0    0    0    0      0      0      0      0         0
/* FINAL ORBIT COMBINATION FROM WEIGHTED AVERAGE OF:        
/* cod emr esa gfz grg jpl mit ngs sio                      
/* REFERENCED TO IGS TIME (IGST) AND TO WEIGHTED MEAN POLE: 
/* PCV:IGS05_1604 OL/AL:FES2004  NONE     Y  ORB:CMB CLK:CMB
*  2010 10 26  9 45  0.00000000
PG01   6598.863526 -20105.454835  15855.841737 999999.999999
PG02  -3169.785014  15384.932901  21430.360361    298.108133  6  4  6 119       
PG03   5416.759767 -22241.481436 -13582.057752    626.673700  5  5  5 118       
PG04 -16133.650723   9409.333325  18823.383505    203.461317  8  8  6 125       
PG05   2120.910730  25882.076718   5314.876716    -57.408924  8  5  4 105       
PG06  11195.517691 -21839.734906  -9762.271817    442.266373  4  4  4 125       
PG07 -25830.768533  -5382.572892  -3881.344125     -1.128780  8  7  5 106       
PG08 -22386.024602   1373.744755 -14647.561056      6.874532  6  6  5 164       
PG09  16874.376769  14919.612169 -14628.810239     38.647993  7  8  8  88       
PG10  -8544.119576  18282.267037  16886.765302    -56.194042  6  4  6 116       
PG11 -21573.578499 -10820.648009 -11759.842558    -99.249534  6  6  6 115       
PG12  11605.007368  21837.156665   9925.178689    -59.891789  9  8  7 122       
PG13 -19523.331946    587.989331  17889.760223    293.855465  9  6  6 113       
PG14  21305.486093 -15472.945555  -2670.275427    101.499602  8  7  5 126       
PG15   4927.214165  15758.550807 -20759.883708   -191.118213  8  7  6 106       
PG16   2570.663105 -24109.835865  10538.211391   -120.606107  6  6  5  99       
PG17 -21706.737068  14064.393388  -5390.341463    175.420163  9  8  7  99       
PG18  16195.072831   3734.578038 -20490.549183    101.039575 10  8  5 115       
PG19  -2963.250359 -16229.585708 -20737.821957    -77.559977  6  7  6 140       
PG20 -13499.802755 -20168.900774  10729.864953     49.990799  8  6  4 126       
PG21  25927.421279   4069.801882  -5485.335572    -97.827266  8  8  5 105       
PG22  13273.244075 -10377.855230 -20342.321386    160.144650  8  7  5 120       
PG23 -12769.774986  -8615.579484  21661.585130    346.959020  9  7  8 136       
PG24  -8410.922645 -17194.571471 -18473.206977    333.361830  6  8  9 125       
PG25  15802.726532  11015.990518  18260.832169    -47.815468  8  8  7 122       
PG26  -6446.571002  19577.083857 -17070.305401    -37.442930  7  3  5  99       
PG27  11917.520209  15244.412480 -17615.489276    201.767346  5  7  8 107       
PG28 -13631.467439   6400.322295 -21363.775398      1.931718  6  4  8 113       
PG29  18917.668762    912.949132  18682.823618    159.003182  8  8  2 114       
PG30  15841.783344   2577.222099  20760.938112    290.689566  7  7  4 128       
PG31  12841.365593 -10691.341212  20899.071633      2.660605  6  7  7 119       
PG32  -7728.139916 -24979.660131   6009.705760   -117.151900  8  6  7 122       
*  2010 10 26 10  0  0.00000000
PG01   7254.139223 -18269.547669  17683.986492 999999.999999
PG02  -5542.420360  14749.669390  21352.490388    298.110272  5  4  7 115       
PG03   6507.795168 -23147.866371 -11304.175572    626.678114  5  5  5 109       
PG04 -18116.607404   8702.677260  17347.524146    203.469572  8  8  6 121       
PG05   1671.396607  25207.545984   8029.101266    -57.414290  7  3  4 124       
PG06  12103.238046 -22362.871681  -7182.723350    442.254133  4  5  4 116       
PG07 -26044.618839  -5653.420887  -1030.765510     -1.128688  8  7  5 110       
PG08 -23787.389570    774.844372 -12347.425909      6.874809  6  6  6 161       
PG09  15195.041296  14630.000594 -16692.354542     38.650476  7  8  8  95       
PG10  -9203.278882  16307.022603  18501.670522    -56.194550  6  5  6 123       
PG11 -20133.134578 -11113.758505 -13869.800117    -99.251653  6  6  5 111       
PG12  11653.687830  22830.220159   7285.119763    -59.888646  9  8  7 119       
PG13 -17942.896782   -877.047462  19448.842765    293.854271  9  5  6 114       
PG14  21072.041382 -15001.776998  -5530.358251    101.502646  8  7  5 123       
PG15   3226.688930  17354.147776 -19787.697183   -191.113666  7  6  6 105       
PG16   3070.601633 -22840.831950  12981.814812   -120.608985  5  5  5  60       
PG17 -21310.396945  13331.815922  -8114.869915    175.421289 10  8  7 105       
PG18  16655.774490   6044.179634 -19596.722372    101.041687 10  8  6 125       
PG19  -1114.255844 -17643.477326 -19711.981848    -77.563121  6  7  5 141       
PG20 -13537.467895 -21309.689309   8220.960103     49.990535  8  5  5 113       
PG21  26335.571483   4482.987291  -2774.723967    -97.829042  8  8  4 108       
PG22  13905.667904  -8050.981807 -20967.549944    160.144247  9  7  6 124       
PG23 -10986.509619 -10349.710821  21849.643424    346.957371  9  7  8 136       
PG24  -6289.988956 -16620.302091 -19768.650308    333.364230  5  8  8 130       
PG25  16190.504598  12979.732853  16551.988872    -47.817469  8  8  7 116       
PG26  -7861.487858  20620.651001 -15024.276954    -37.450256  6  2  5 106       
PG27   9725.711185  14874.922907 -19134.133923    201.769361  5  7  8 108       
PG28 -14218.678811   3905.360834 -21601.693808      1.933307  6  4  8 110       
PG29  17382.094507   2491.625725  19993.761696    159.005721  8  7  2 111       
PG30  16467.921221   4904.615384  19853.960980    290.692711  6  7  4 130       
PG31  15013.499943 -10011.193140  19761.226790      2.663803  6  6  7 124       
PG32  -7586.819063 -25499.290505   3246.885076   -117.159843  8  6  7 113       
*  2010 10 26 10 15  0.00000000
PG01   8064.736430 -16289.539876  19203.695593 999999.999999
PG02  -7918.690552  14235.208156  20906.245473    298.112704  4  4  7 119       
PG03   7406.675658 -23886.175642  -8831.991273    626.683113  5  5  5  90       
PG04 -19948.834036   8134.064770  15572.768966    203.478260  8  7  6 125       
PG05   1094.282597  24271.994992  10604.322137    -57.419583  6  2  4 116       
PG06  12794.937566 -22695.949879  -4477.610372    442.242086  4  5  4 118       
PG07 -25957.583077  -5844.040989   1837.337154     -1.128315  8  7  5 112       
PG08 -24960.878700    335.511102  -9840.692636      6.874312  6  6  6 164       
PG09  13294.569972  14395.932950 -18479.359503     38.653304  6  7  8  89       
PG10 -10006.848971  14209.476374  19789.568806    -56.195520  6  5  6 132       
PG11 -18486.526615 -11472.319057 -15748.836713    -99.254795  6  6  6 111       
PG12  11664.782061  23528.012624   4520.900579    -59.885257 10  8  6 127       
PG13 -16333.174175  -2540.264975  20670.057507    293.853057  8  5  6 109       
PG14  20639.394806 -14289.657639  -8294.064562    101.505903  9  7  5 124       
PG15   1693.056873  18936.503447 -18473.343374   -191.109322  7  6  6 110       
PG16   3711.799098 -21346.635108  15199.246069   -120.611858  4  4  5  98       
PG17 -20744.441700  12359.797600 -10697.409062    175.422361 10  8  8  99       
PG18  17190.621506   8208.593223 -18360.264469    101.043716 10  8  6 127       
PG19    563.390266 -19058.248979 -18343.804840    -77.566409  7  6  5 137       
PG20 -13531.527747 -22172.485545   5570.405372     49.990347  8  5  5 112       
PG21  26466.431906   4805.347468    -17.886656    -97.831918  8  7  4 118       
PG22  14661.280673  -5708.990346 -21226.086329    160.143489  9  7  6 126       
PG23  -9295.329251 -12178.321974  21661.574472    346.955389  8  7  8 129       
PG24  -4017.453330 -16120.647297 -20724.748410    333.366384  3  8  8 132       
PG25  16612.037984  14722.074419  14557.777934    -47.819408  8  7  7 114       
PG26  -9045.545026  21573.863218 -12723.686446    -37.457474  6  2  5 101       
PG27   7357.151959  14599.557637 -20306.408390    201.771808  4  7  8 104       
PG28 -14936.410111   1442.491002 -21450.409444      1.934876  7  4  8 105       
PG29  15842.203468   4240.471508  20962.586242    159.008106  8  7  2 111       
PG30  17167.116617   7078.571263  18593.404730    290.695936  6  7  4 126       
PG31  17076.681363  -9483.835058  18290.904280      2.667008  7  7  7 130       
PG32  -7399.730490 -25722.511055    429.700231   -117.167739  8  7  7  93       
EOF
